{
  "type": "FeatureCollection",
  "features": [
    {
      "type": "Feature",
      "properties": {
        "norad_id": 41890,
        "name": "CYGFM07",
        "group": "weather",
        "lat": 32.12846912650758,
        "lon": 148.01528214492473,
        "alt_km": 409.34764765609543,
        "timestamp": "2025-12-03T04:52:29.284051+00:00",
        "meta_object_name": "CYGFM07",
        "meta_object_id": "2016-078G",
        "meta_epoch": "2025-12-02T17:45:25.524000",
        "meta_mean_motion": 15.49376336,
        "meta_eccentricity": 0.0008905,
        "meta_inclination": 34.947,
        "meta_ra_of_asc_node": 86.9867,
        "meta_arg_of_pericenter": 122.8145,
        "meta_mean_anomaly": 237.3435,
        "meta_ephemeris_type": 0,
        "meta_classification_type": "U",
        "meta_norad_cat_id": 41890,
        "meta_element_set_no": 999,
        "meta_rev_at_epoch": 49840,
        "meta_bstar": 0.00048975,
        "meta_mean_motion_dot": 0.00027786,
        "meta_mean_motion_ddot": 0,
        "tle_line1": "1 41890U 16078G   25336.73987875  .00027786  00000+0  48975-3 0  9992",
        "tle_line2": "2 41890  34.9470  86.9867 0008905 122.8145 237.3435 15.49376336498409"
      },
      "geometry": {
        "type": "Point",
        "coordinates": [
          148.01528214492473,
          32.12846912650758
        ]
      }
    },
    {
      "type": "Feature",
      "properties": {
        "norad_id": 41891,
        "name": "CYGFM03",
        "group": "weather",
        "lat": -34.848651020838574,
        "lon": -8.39480864643307,
        "alt_km": 425.83877435975774,
        "timestamp": "2025-12-03T04:52:29.284062+00:00",
        "meta_object_name": "CYGFM03",
        "meta_object_id": "2016-078H",
        "meta_epoch": "2025-12-02T16:54:19.672704",
        "meta_mean_motion": 15.49277167,
        "meta_eccentricity": 0.0008247,
        "meta_inclination": 34.9422,
        "meta_ra_of_asc_node": 89.1307,
        "meta_arg_of_pericenter": 109.0477,
        "meta_mean_anomaly": 251.1138,
        "meta_ephemeris_type": 0,
        "meta_classification_type": "U",
        "meta_norad_cat_id": 41891,
        "meta_element_set_no": 999,
        "meta_rev_at_epoch": 49837,
        "meta_bstar": 0.00047863,
        "meta_mean_motion_dot": 0.0002705,
        "meta_mean_motion_ddot": 0,
        "tle_line1": "1 41891U 16078H   25336.70439436  .00027050  00000+0  47863-3 0  9994",
        "tle_line2": "2 41891  34.9422  89.1307 0008247 109.0477 251.1138 15.49277167498377"
      },
      "geometry": {
        "type": "Point",
        "coordinates": [
          -8.39480864643307,
          -34.848651020838574
        ]
      }
    },
    {
      "type": "Feature",
      "properties": {
        "norad_id": 43010,
        "name": "FENGYUN 3D",
        "group": "weather",
        "lat": -72.18064686083797,
        "lon": 93.87409863676089,
        "alt_km": 833.3410675821187,
        "timestamp": "2025-12-03T04:52:29.284073+00:00",
        "meta_object_name": "FENGYUN 3D",
        "meta_object_id": "2017-072A",
        "meta_epoch": "2025-12-02T20:54:49.018752",
        "meta_mean_motion": 14.19679097,
        "meta_eccentricity": 5.81e-05,
        "meta_inclination": 98.9879,
        "meta_ra_of_asc_node": 303.0345,
        "meta_arg_of_pericenter": 225.1398,
        "meta_mean_anomaly": 134.973,
        "meta_ephemeris_type": 0,
        "meta_classification_type": "U",
        "meta_norad_cat_id": 43010,
        "meta_element_set_no": 999,
        "meta_rev_at_epoch": 41713,
        "meta_bstar": 9.8281e-05,
        "meta_mean_motion_dot": 1.62e-06,
        "meta_mean_motion_ddot": 0,
        "tle_line1": "1 43010U 17072A   25336.87140068  .00000162  00000+0  98281-4 0  9998",
        "tle_line2": "2 43010  98.9879 303.0345 0000581 225.1398 134.9730 14.19679097417138"
      },
      "geometry": {
        "type": "Point",
        "coordinates": [
          93.87409863676089,
          -72.18064686083797
        ]
      }
    },
    {
      "type": "Feature",
      "properties": {
        "norad_id": 43013,
        "name": "NOAA 20 (JPSS-1)",
        "group": "weather",
        "lat": 51.516217098387784,
        "lon": -97.5770734781103,
        "alt_km": 821.1690392504679,
        "timestamp": "2025-12-03T04:52:29.284084+00:00",
        "meta_object_name": "NOAA 20 (JPSS-1)",
        "meta_object_id": "2017-073A",
        "meta_epoch": "2025-12-02T20:10:14.314080",
        "meta_mean_motion": 14.19521388,
        "meta_eccentricity": 0.0002052,
        "meta_inclination": 98.7584,
        "meta_ra_of_asc_node": 273.2461,
        "meta_arg_of_pericenter": 101.5196,
        "meta_mean_anomaly": 258.6211,
        "meta_ephemeris_type": 0,
        "meta_classification_type": "U",
        "meta_norad_cat_id": 43013,
        "meta_element_set_no": 999,
        "meta_rev_at_epoch": 41661,
        "meta_bstar": 7.8309e-05,
        "meta_mean_motion_dot": 1.21e-06,
        "meta_mean_motion_ddot": 0,
        "tle_line1": "1 43013U 17073A   25336.84044345  .00000121  00000+0  78309-4 0  9994",
        "tle_line2": "2 43013  98.7584 273.2461 0002052 101.5196 258.6211 14.19521388416616"
      },
      "geometry": {
        "type": "Point",
        "coordinates": [
          -97.5770734781103,
          51.516217098387784
        ]
      }
    },
    {
      "type": "Feature",
      "properties": {
        "norad_id": 43226,
        "name": "GOES 17",
        "group": "weather",
        "lat": -0.21218127237014975,
        "lon": 55.91521525167425,
        "alt_km": 35797.97095445556,
        "timestamp": "2025-12-03T04:52:29.284097+00:00",
        "meta_object_name": "GOES 17",
        "meta_object_id": "2018-022A",
        "meta_epoch": "2025-12-02T13:21:34.968672",
        "meta_mean_motion": 1.00271638,
        "meta_eccentricity": 0.00033689,
        "meta_inclination": 0.4312,
        "meta_ra_of_asc_node": 89.3419,
        "meta_arg_of_pericenter": 180.9825,
        "meta_mean_anomaly": 272.231,
        "meta_ephemeris_type": 0,
        "meta_classification_type": "U",
        "meta_norad_cat_id": 43226,
        "meta_element_set_no": 999,
        "meta_rev_at_epoch": 2845,
        "meta_bstar": 0,
        "meta_mean_motion_dot": -1.62e-06,
        "meta_mean_motion_ddot": 0,
        "tle_line1": "1 43226U 18022A   25336.55665473 -.00000162  00000+0  00000+0 0  9998",
        "tle_line2": "2 43226   0.4312  89.3419 0003368 180.9825 272.2310  1.00271638 28450"
      },
      "geometry": {
        "type": "Point",
        "coordinates": [
          55.91521525167425,
          -0.21218127237014975
        ]
      }
    },
    {
      "type": "Feature",
      "properties": {
        "norad_id": 43491,
        "name": "FENGYUN 2H",
        "group": "weather",
        "lat": 1.4819644082254253,
        "lon": -135.2288158578235,
        "alt_km": 35774.40162196639,
        "timestamp": "2025-12-03T04:52:29.284109+00:00",
        "meta_object_name": "FENGYUN 2H",
        "meta_object_id": "2018-050A",
        "meta_epoch": "2025-12-02T20:20:17.023200",
        "meta_mean_motion": 1.00271461,
        "meta_eccentricity": 0.0002887,
        "meta_inclination": 2.5232,
        "meta_ra_of_asc_node": 81.4398,
        "meta_arg_of_pericenter": 161.9482,
        "meta_mean_anomaly": 212.9879,
        "meta_ephemeris_type": 0,
        "meta_classification_type": "U",
        "meta_norad_cat_id": 43491,
        "meta_element_set_no": 999,
        "meta_rev_at_epoch": 2747,
        "meta_bstar": 0,
        "meta_mean_motion_dot": -1.11e-06,
        "meta_mean_motion_ddot": 0,
        "tle_line1": "1 43491U 18050A   25336.84741925 -.00000111  00000+0  00000+0 0  9996",
        "tle_line2": "2 43491   2.5232  81.4398 0002887 161.9482 212.9879  1.00271461 27476"
      },
      "geometry": {
        "type": "Point",
        "coordinates": [
          -135.2288158578235,
          1.4819644082254253
        ]
      }
    },
    {
      "type": "Feature",
      "properties": {
        "norad_id": 43689,
        "name": "METOP-C",
        "group": "weather",
        "lat": 53.34746662582972,
        "lon": -133.014536160066,
        "alt_km": 814.754465093738,
        "timestamp": "2025-12-03T04:52:29.284129+00:00",
        "meta_object_name": "METOP-C",
        "meta_object_id": "2018-087A",
        "meta_epoch": "2025-12-02T19:50:21.217344",
        "meta_mean_motion": 14.21505697,
        "meta_eccentricity": 0.0001726,
        "meta_inclination": 98.6944,
        "meta_ra_of_asc_node": 34.7474,
        "meta_arg_of_pericenter": 58.4616,
        "meta_mean_anomaly": 301.673,
        "meta_ephemeris_type": 0,
        "meta_classification_type": "U",
        "meta_norad_cat_id": 43689,
        "meta_element_set_no": 999,
        "meta_rev_at_epoch": 36693,
        "meta_bstar": 0.00011123,
        "meta_mean_motion_dot": 2e-06,
        "meta_mean_motion_ddot": 0,
        "tle_line1": "1 43689U 18087A   25336.82663446  .00000200  00000+0  11123-3 0  9994",
        "tle_line2": "2 43689  98.6944  34.7474 0001726  58.4616 301.6730 14.21505697366934"
      },
      "geometry": {
        "type": "Point",
        "coordinates": [
          -133.014536160066,
          53.34746662582972
        ]
      }
    }
  ]
}